
# Worst residual: 7.21 km
# MJD 55789.000000 (2011 Aug 16  0:00)
2011-037A = Spektr-R = NORAD 37755
1 37755U 11037A   11228.49923398  .00000000  00000-0  00000-0 0  4805
2 37755 054.9519 334.1256 9307587 306.7338 157.1523 00.11598135    02

# Worst residual: 4.11 km
# MJD 55790.000000 (2011 Aug 17  0:00)
2011-037A = Spektr-R = NORAD 37755
1 37755U 11037A   11229.49923398  .00000000  00000-0  00000-0 0  4806
2 37755 055.0031 334.0119 9309588 306.8087 198.8198 00.11602453    04

# Worst residual: 10.86 km
# MJD 55791.000000 (2011 Aug 18  0:00)
2011-037A = Spektr-R = NORAD 37755
1 37755U 11037A   11230.49923398  .00000000  00000-0  00000-0 0  4808
2 37755 054.9991 333.9609 9303832 306.8491 240.3602 00.11602343    05

# Worst residual: 13.37 km
# MJD 55792.000000 (2011 Aug 19  0:00)
2011-037A = Spektr-R = NORAD 37755
1 37755U 11037A   11231.49923398  .00000000  00000-0  00000-0 0  4809
2 37755 054.9291 333.9639 9293083 306.8058 281.9469 00.11597717    06

# Worst residual: 15.84 km
# MJD 55793.000000 (2011 Aug 20  0:00)
2011-037A = Spektr-R = NORAD 37755
1 37755U 11037A   11232.49923398  .00000000  00000-0  00000-0 0  4800
2 37755 054.8841 333.9044 9283777 306.7285 323.6953 00.11565069    03

# Worst residual: 44.78 km
# MJD 55794.000000 (2011 Aug 21  0:00)
2011-037A = Spektr-R = NORAD 37755
1 37755U 11037A   11233.49923398  .00000000  00000-0  00000-0 0  4801
2 37755 055.0391 333.7175 9289801 306.8289 005.2939 00.11391799    02

# Worst residual: 23.80 km
# MJD 55795.000000 (2011 Aug 22  0:00)
2011-037A = Spektr-R = NORAD 37755
1 37755U 11037A   11234.49923398  .00000000  00000-0  00000-0 0  4802
2 37755 055.1928 333.2065 9281580 307.2006 046.4309 00.11448341    04

# Worst residual: 24.17 km
# MJD 55796.000000 (2011 Aug 23  0:00)
2011-037A = Spektr-R = NORAD 37755
1 37755U 11037A   11235.49923398  .00000000  00000-0  00000-0 0  4803
2 37755 055.4769 332.5307 9280419 307.5083 088.0620 00.11509632    08

# Worst residual: 41.27 km
# MJD 55797.000000 (2011 Aug 24  0:00)
2011-037A = Spektr-R = NORAD 37755
1 37755U 11037A   11236.49923398  .00000000  00000-0  00000-0 0  4804
2 37755 056.1036 331.2752 9281318 308.1362 130.0775 00.11550542    04

# Worst residual: 74.11 km
# MJD 55798.000000 (2011 Aug 25  0:00)
2011-037A = Spektr-R = NORAD 37755
1 37755U 11037A   11237.49923398  .00000000  00000-0  00000-0 0  4805
2 37755 057.5377 328.9124 9272463 309.3768 172.3639 00.11561716    00

# Worst residual: 95.26 km
# MJD 55799.000000 (2011 Aug 26  0:00)
2011-037A = Spektr-R = NORAD 37755
1 37755U 11037A   11238.49923398  .00000000  00000-0  00000-0 0  4806
2 37755 059.6645 326.0593 9221695 310.7454 214.5041 00.11512487    06

# Worst residual: 65.11 km
# MJD 55800.000000 (2011 Aug 27  0:00)
2011-037A = Spektr-R = NORAD 37755
1 37755U 11037A   11239.49923398  .00000000  00000-0  00000-0 0  4807
2 37755 060.9499 324.6089 9138429 311.0907 255.9688 00.11424261    09

# Worst residual: 44.07 km
# MJD 55801.000000 (2011 Aug 28  0:00)
2011-037A = Spektr-R = NORAD 37755
1 37755U 11037A   11240.49923398  .00000000  00000-0  00000-0 0  4809
2 37755 061.1750 324.3237 9081708 310.8571 296.6466 00.11387848    00

# Worst residual: 76.75 km
# MJD 55802.000000 (2011 Aug 29  0:00)
2011-037A = Spektr-R = NORAD 37755
1 37755U 11037A   11241.49923398  .00000000  00000-0  00000-0 0  4800
2 37755 061.1249 324.2243 9047376 310.7562 336.8943 00.11503304    05

# Worst residual: 63.60 km
# MJD 55803.000000 (2011 Aug 30  0:00)
2011-037A = Spektr-R = NORAD 37755
1 37755U 11037A   11242.49923398  .00000000  00000-0  00000-0 0  4801
2 37755 061.1850 324.0533 9027061 310.4080 018.1204 00.11532850    02

# Worst residual: 16.55 km
# MJD 55804.000000 (2011 Aug 31  0:00)
2011-037A = Spektr-R = NORAD 37755
1 37755U 11037A   11243.49923398  .00000000  00000-0  00000-0 0  4802
2 37755 061.2757 323.9396 9032910 310.4760 059.1233 00.11448718    04

# Worst residual: 13.46 km
# MJD 55805.000000 (2011 Sep  1  0:00)
2011-037A = Spektr-R = NORAD 37755
1 37755U 11037A   11244.49923398  .00000000  00000-0  00000-0 0  4803
2 37755 061.4880 323.5295 9042925 310.6267 099.9569 00.11434640    01

# Worst residual: 11.62 km
# MJD 55806.000000 (2011 Sep  2  0:00)
2011-037A = Spektr-R = NORAD 37755
1 37755U 11037A   11245.49923398  .00000000  00000-0  00000-0 0  4804
2 37755 061.6953 323.1874 9048239 310.8219 140.5967 00.11422319    01

# Worst residual: 8.61 km
# MJD 55807.000000 (2011 Sep  3  0:00)
2011-037A = Spektr-R = NORAD 37755
1 37755U 11037A   11246.49923398  .00000000  00000-0  00000-0 0  4805
2 37755 061.7402 323.1107 9045876 310.9147 181.2563 00.11417296    07

# Worst residual: 9.65 km
# MJD 55808.000000 (2011 Sep  4  0:00)
2011-037A = Spektr-R = NORAD 37755
1 37755U 11037A   11247.49923398  .00000000  00000-0  00000-0 0  4806
2 37755 061.6179 323.2247 9040896 310.8886 222.1439 00.11417005    04

# Worst residual: 16.35 km
# MJD 55809.000000 (2011 Sep  5  0:00)
2011-037A = Spektr-R = NORAD 37755
1 37755U 11037A   11248.49923398  .00000000  00000-0  00000-0 0  4807
2 37755 061.4732 323.3207 9038839 310.8376 263.3392 00.11408780    07

# Worst residual: 24.53 km
# MJD 55810.000000 (2011 Sep  6  0:00)
2011-037A = Spektr-R = NORAD 37755
1 37755U 11037A   11249.49923398  .00000000  00000-0  00000-0 0  4808
2 37755 061.4832 323.2477 9041538 310.8316 304.7870 00.11359780    06

# Worst residual: 182.46 km
# MJD 55811.000000 (2011 Sep  7  0:00)
2011-037A = Spektr-R = NORAD 37755
1 37755U 11037A   11250.49923398  .00000000  00000-0  00000-0 0  4800
2 37755 061.6866 323.0676 9064571 310.6813 346.5241 00.11002303    08

# Worst residual: 278.33 km
# MJD 55812.000000 (2011 Sep  8  0:00)
2011-037A = Spektr-R = NORAD 37755
1 37755U 11037A   11251.49923398  .00000000  00000-0  00000-0 0  4801
2 37755 061.7999 322.9963 9064901 311.7413 025.7167 00.10729017    08

# Worst residual: 47.94 km
# MJD 55813.000000 (2011 Sep  9  0:00)
2011-037A = Spektr-R = NORAD 37755
1 37755U 11037A   11252.49923398  .00000000  00000-0  00000-0 0  4802
2 37755 061.8992 322.9546 9014211 311.5488 067.4240 00.11276471    05

# Worst residual: 23.55 km
# MJD 55814.000000 (2011 Sep 10  0:00)
2011-037A = Spektr-R = NORAD 37755
1 37755U 11037A   11253.49923398  .00000000  00000-0  00000-0 0  4803
2 37755 061.9519 322.9182 9014902 311.3480 109.1786 00.11391105    05

# Worst residual: 11.73 km
# MJD 55815.000000 (2011 Sep 11  0:00)
2011-037A = Spektr-R = NORAD 37755
1 37755U 11037A   11254.49923398  .00000000  00000-0  00000-0 0  4804
2 37755 062.0642 322.7547 9022577 311.3270 150.6759 00.11426796    07

# Worst residual: 5.70 km
# MJD 55816.000000 (2011 Sep 12  0:00)
2011-037A = Spektr-R = NORAD 37755
1 37755U 11037A   11255.49923398  .00000000  00000-0  00000-0 0  4805
2 37755 062.2195 322.5361 9027796 311.4250 191.8560 00.11437283    01
